{
    "links": {
        "self": "http://www.neowsapp.com/rest/v1/neo/3836100?api_key=iIulBulltgU6a56xZRHN4H3l9WmuAYTsLGpBGhQ2"
    },
    "id": "3836100",
    "neo_reference_id": "3836100",
    "name": "(2018 VF4)",
    "designation": "2018 VF4",
    "nasa_jpl_url": "http://ssd.jpl.nasa.gov/sbdb.cgi?sstr=3836100",
    "absolute_magnitude_h": 25.3,
    "estimated_diameter": {
        "kilometers": {
            "estimated_diameter_min": 0.0231502122,
            "estimated_diameter_max": 0.0517654482
        },
        "meters": {
            "estimated_diameter_min": 23.150212221,
            "estimated_diameter_max": 51.7654482198
        },
        "miles": {
            "estimated_diameter_min": 0.0143848705,
            "estimated_diameter_max": 0.0321655483
        },
        "feet": {
            "estimated_diameter_min": 75.9521422633,
            "estimated_diameter_max": 169.8341531374
        }
    },
    "is_potentially_hazardous_asteroid": false,
    "close_approach_data": [
        {
            "close_approach_date": "2012-12-15",
            "close_approach_date_full": "2012-Dec-15 03:21",
            "epoch_date_close_approach": 1355541660000,
            "relative_velocity": {
                "kilometers_per_second": "18.6810383241",
                "kilometers_per_hour": "67251.7379666498",
                "miles_per_hour": "41787.6146271108"
            },
            "miss_distance": {
                "astronomical": "0.4539465993",
                "lunar": "176.5852271277",
                "kilometers": "67909444.349023491",
                "miles": "42196972.0188905358"
            },
            "orbiting_body": "Earth"
        },
        {
            "close_approach_date": "2015-11-30",
            "close_approach_date_full": "2015-Nov-30 01:30",
            "epoch_date_close_approach": 1448847000000,
            "relative_velocity": {
                "kilometers_per_second": "12.3743472875",
                "kilometers_per_hour": "44547.6502348348",
                "miles_per_hour": "27680.1774473061"
            },
            "miss_distance": {
                "astronomical": "0.2285672639",
                "lunar": "88.9126656571",
                "kilometers": "34193175.831167893",
                "miles": "21246654.2410392034"
            },
            "orbiting_body": "Earth"
        },
        {
            "close_approach_date": "2018-11-09",
            "close_approach_date_full": "2018-Nov-09 04:56",
            "epoch_date_close_approach": 1541739360000,
            "relative_velocity": {
                "kilometers_per_second": "8.6824452799",
                "kilometers_per_hour": "31256.8030077076",
                "miles_per_hour": "19421.7618466503"
            },
            "miss_distance": {
                "astronomical": "0.0576719786",
                "lunar": "22.4343996754",
                "kilometers": "8627605.157245582",
                "miles": "5360945.2543777516"
            },
            "orbiting_body": "Earth"
        },
        {
            "close_approach_date": "2021-10-13",
            "close_approach_date_full": "2021-Oct-13 11:41",
            "epoch_date_close_approach": 1634125260000,
            "relative_velocity": {
                "kilometers_per_second": "11.3146997635",
                "kilometers_per_hour": "40732.9191484596",
                "miles_per_hour": "25309.8519008859"
            },
            "miss_distance": {
                "astronomical": "0.2074307916",
                "lunar": "80.6905779324",
                "kilometers": "31031204.595773892",
                "miles": "19281896.4223960296"
            },
            "orbiting_body": "Earth"
        },
        {
            "close_approach_date": "2024-09-24",
            "close_approach_date_full": "2024-Sep-24 15:45",
            "epoch_date_close_approach": 1727192700000,
            "relative_velocity": {
                "kilometers_per_second": "17.1654848693",
                "kilometers_per_hour": "61795.7455293",
                "miles_per_hour": "38397.4731040253"
            },
            "miss_distance": {
                "astronomical": "0.4136585685",
                "lunar": "160.9131831465",
                "kilometers": "61882440.754849095",
                "miles": "38451965.643723711"
            },
            "orbiting_body": "Earth"
        }
    ],
    "orbital_data": {
        "orbit_id": "5",
        "orbit_determination_date": "2018-12-03 06:24:36",
        "first_observation_date": "2018-11-06",
        "last_observation_date": "2018-12-02",
        "data_arc_in_days": 26,
        "observations_used": 26,
        "orbit_uncertainty": "7",
        "minimum_orbit_intersection": ".0568591",
        "jupiter_tisserand_invariant": "3.595",
        "epoch_osculation": "2459000.5",
        "eccentricity": ".4927806526194837",
        "semi_major_axis": "2.064054716656137",
        "inclination": "11.58806293405748",
        "ascending_node_longitude": "226.3401582013845",
        "orbital_period": "1083.129129405018",
        "perihelion_distance": "1.046928486340002",
        "perihelion_argument": "177.1663813642892",
        "aphelion_distance": "3.081180946972272",
        "perihelion_time": "2459512.673354375500",
        "mean_anomaly": "189.7687666506905",
        "mean_motion": ".3323703427658291",
        "equinox": "J2000",
        "orbit_class": {
            "orbit_class_type": "AMO",
            "orbit_class_description": "Near-Earth asteroid orbits similar to that of 1221 Amor",
            "orbit_class_range": "1.017 AU < q (perihelion) < 1.3 AU"
        }
    },
    "is_sentry_object": false
}